NORAD_CAT_ID,OBJECT_NAME,OBJECT_TYPE,EPOCH,MEAN_MOTION,ECCENTRICITY,INCLINATION,RA_OF_ASC_NODE,ARG_OF_PERICENTER,MEAN_ANOMALY,BSTAR,MEAN_MOTION_DOT,MEAN_MOTION_DDOT,TLE_LINE0,TLE_LINE1,TLE_LINE2,SEMIMAJOR_AXIS,PERIOD,APOGEE,PERIGEE,DECAYED
50191.0,STARLINK-3273,PAYLOAD,2023-11-09 11:04:49,15.08834708,0.0001327,53.2171,120.433,89.39,270.7244,0.00024402,3.597e-05,0.0,0 STARLINK-3273,1 50191U 21125AM  23313.46168884  .00003597  00000-0  24402-3 0  9993,2 50191  53.2171 120.4330 0001327  89.3900 270.7244 15.08834708104861,6917.897,95.438,540.68,538.844,0.0
50191.0,STARLINK-3273,PAYLOAD,2023-11-09 19:01:45,15.08846703,0.0001288,53.217,118.9464,89.8138,270.3002,0.00029279,4.376e-05,0.0,0 STARLINK-3273,1 50191U 21125AM  23313.79288302  .00004376  00000-0  29279-3 0  9990,2 50191  53.2170 118.9464 0001288  89.8138 270.3002 15.08846703104916,6917.86,95.437,540.616,538.834,0.0
50191.0,STARLINK-3273,PAYLOAD,2023-11-10 10:55:37,15.0884082,0.0001287,53.2168,115.9731,96.0684,264.0454,0.00014594,2.036e-05,0.0,0 STARLINK-3273,1 50191U 21125AM  23314.45529122  .00002036  00000-0  14594-3 0  9997,2 50191  53.2168 115.9731 0001287  96.0684 264.0454 15.08840820105019,6917.878,95.438,540.633,538.853,0.0
50191.0,STARLINK-3273,PAYLOAD,2023-11-10 17:17:09,15.08840805,0.0001325,53.2166,114.7836,93.6753,266.439,0.00013686,1.891e-05,0.0,0 STARLINK-3273,1 50191U 21125AM  23314.72025177  .00001891  00000-0  13686-3 0  9997,2 50191  53.2166 114.7836 0001325  93.6753 266.4390 15.08840805108137,6917.878,95.438,540.66,538.826,0.0
50191.0,STARLINK-3273,PAYLOAD,2023-11-11 13:57:10,15.08843891,0.0001446,53.2153,110.9174,93.7124,266.4034,-1.8228e-05,-5.78e-06,0.0,0 STARLINK-3273,1 50191U 21125AM  23315.58136753 -.00000578  00000-0 -18228-4 0  9996,2 50191  53.2153 110.9174 0001446  93.7124 266.4034 15.08843891108260,6917.868,95.437,540.734,538.733,0.0
50191.0,STARLINK-3273,PAYLOAD,2023-11-11 17:07:56,15.08847792,0.000128,53.2168,110.3226,91.0361,269.0778,-1.4796e-05,-5.23e-06,0.0,0 STARLINK-3273,1 50191U 21125AM  23315.71384669 -.00000523  00000-0 -14796-4 0  9998,2 50191  53.2168 110.3226 0001280  91.0361 269.0778 15.08847792105207,6917.857,95.437,540.607,538.836,0.0
50191.0,STARLINK-3273,PAYLOAD,2023-11-11 20:18:42,15.08855023,0.0001437,53.2167,109.7279,98.5925,261.523,-0.00012835,-2.331e-05,0.0,0 STARLINK-3273,1 50191U 21125AM  23315.84632231 -.00002331  00000-0 -12835-3 0  9993,2 50191  53.2167 109.7279 0001437  98.5925 261.5230 15.08855023108308,6917.834,95.437,540.694,538.705,0.0
50191.0,STARLINK-3273,PAYLOAD,2023-11-12 10:37:11,15.08837488,0.0001419,53.217,107.0504,101.8225,258.2926,4.9615e-05,5.02e-06,0.0,0 STARLINK-3273,1 50191U 21125AM  23316.44248993  .00000502  00000-0  49615-4 0  9991,2 50191  53.2170 107.0504 0001419 101.8225 258.2926 15.08837488105313,6917.888,95.438,540.735,538.771,0.0
50191.0,STARLINK-3273,PAYLOAD,2023-11-12 13:47:57,15.08838762,0.0001415,53.217,106.4556,101.8389,258.2762,5.7256e-05,6.23e-06,0.0,0 STARLINK-3273,1 50191U 21125AM  23316.57496904  .00000623  00000-0  57256-4 0  9996,2 50191  53.2170 106.4556 0001415 101.8389 258.2762 15.08838762108418,6917.884,95.438,540.728,538.77,0.0
50191.0,STARLINK-3273,PAYLOAD,2023-11-12 16:58:43,15.08842167,0.0001408,53.2174,105.8603,101.7168,258.3982,5.1087e-05,5.25e-06,0.0,0 STARLINK-3273,1 50191U 21125AM  23316.70744680  .00000525  00000-0  51087-4 0  9995,2 50191  53.2174 105.8603 0001408 101.7168 258.3982 15.08842167108435,6917.874,95.437,540.713,538.765,0.0
50191.0,STARLINK-3273,PAYLOAD,2023-11-13 13:38:43,15.08843868,0.0001417,53.2182,101.9951,99.2533,260.862,9.7346e-05,1.262e-05,0.0,0 STARLINK-3273,1 50191U 21125AM  23317.56856409  .00001262  00000-0  97346-4 0  9990,2 50191  53.2182 101.9951 0001417  99.2533 260.8620 15.08843868108564,6917.869,95.437,540.714,538.753,0.0
50191.0,STARLINK-3273,PAYLOAD,2023-11-13 16:49:29,15.08847582,0.0001386,53.2179,101.4022,93.2132,266.9019,0.00011584,1.557e-05,0.0,0 STARLINK-3273,1 50191U 21125AM  23317.70104137  .00001557  00000-0  11584-3 0  9996,2 50191  53.2179 101.4022 0001386  93.2132 266.9019 15.08847582105505,6917.857,95.437,540.681,538.763,0.0
50191.0,STARLINK-3273,PAYLOAD,2023-11-14 02:21:48,15.08845008,0.0001213,53.2177,99.6192,82.3003,277.8127,4.4593e-05,4.22e-06,0.0,0 STARLINK-3273,1 50191U 21125AM  23318.09848372  .00000422  00000-0  44593-4 0  9992,2 50191  53.2177  99.6192 0001213  82.3003 277.8127 15.08845008105562,6917.865,95.437,540.569,538.891,0.0
50191.0,STARLINK-3273,PAYLOAD,2023-11-14 13:29:32,15.08829442,0.0001446,53.2187,97.5368,88.9365,271.1793,-3.4369e-05,-8.35e-06,0.0,0 STARLINK-3273,1 50191U 21125AM  23318.56217857 -.00000835  00000-0 -34369-4 0  9992,2 50191  53.2187  97.5368 0001446  88.9365 271.1793 15.08829442108716,6917.913,95.438,540.778,538.777,0.0
50191.0,STARLINK-3273,PAYLOAD,2023-11-14 18:15:41,15.08831903,0.0001389,53.2184,96.6453,85.4537,274.6614,-7.0676e-06,-4e-06,0.0,0 STARLINK-3273,1 50191U 21125AM  23318.76089766 -.00000400  00000-0 -70676-5 0  9990,2 50191  53.2184  96.6453 0001389  85.4537 274.6614 15.08831903105663,6917.905,95.438,540.731,538.809,0.0
50191.0,STARLINK-3273,PAYLOAD,2023-11-15 13:20:18,15.08844523,0.000144,53.2192,93.0776,88.4245,271.6912,5.8732e-05,6.47e-06,0.0,0 STARLINK-3273,1 50191U 21125AM  23319.55576897  .00000647  00000-0  58732-4 0  9993,2 50191  53.2192  93.0776 0001440  88.4245 271.6912 15.08844523108863,6917.867,95.437,540.728,538.735,0.0
50191.0,STARLINK-3273,PAYLOAD,2023-11-15 18:06:27,15.08850348,0.0001447,53.2191,92.1855,88.9772,271.1386,8.3139e-05,1.036e-05,0.0,0 STARLINK-3273,1 50191U 21125AM  23319.75448439  .00001036  00000-0  83139-4 0  9997,2 50191  53.2191  92.1855 0001447  88.9772 271.1386 15.08850348105811,6917.849,95.437,540.715,538.713,0.0
50191.0,STARLINK-3273,PAYLOAD,2023-11-17 08:15:43,15.08836847,0.0001526,53.2192,85.049,91.1069,269.0098,3.7022e-06,-2.29e-06,0.0,0 STARLINK-3273,1 50191U 21125AM  23321.34425557 -.00000229  00000-0  37022-5 0  9996,2 50191  53.2192  85.0490 0001526  91.1069 269.0098 15.08836847106052,6917.89,95.438,540.811,538.699,0.0
50191.0,STARLINK-3273,PAYLOAD,2023-11-17 14:37:16,15.08839893,0.0002061,53.2166,83.8551,104.3996,255.7225,7.5457e-05,9.13e-06,0.0,0 STARLINK-3273,1 50191U 21125AM  23321.60921427  .00000913  00000-0  75457-4 0  9994,2 50191  53.2166  83.8551 0002061 104.3996 255.7225 15.08839893109172,6917.881,95.438,541.171,538.32,0.0
50191.0,STARLINK-3273,PAYLOAD,2023-11-18 12:52:40,15.08841495,0.0001503,53.2189,79.694,96.9247,263.1916,8.0373e-05,9.91e-06,0.0,0 STARLINK-3273,1 50191U 21125AM  23322.53657476  .00000991  00000-0  80373-4 0  9996,2 50191  53.2189  79.6940 0001503  96.9247 263.1916 15.08841495106232,6917.876,95.437,540.781,538.701,0.0
50191.0,STARLINK-3273,PAYLOAD,2023-11-18 14:28:03,15.08842907,0.0001429,53.2183,79.3962,95.9501,264.1654,9.3206e-05,1.196e-05,0.0,0 STARLINK-3273,1 50191U 21125AM  23322.60281318  .00001196  00000-0  93206-4 0  9999,2 50191  53.2183  79.3962 0001429  95.9501 264.1654 15.08842907109328,6917.872,95.437,540.725,538.748,0.0
50191.0,STARLINK-3273,PAYLOAD,2023-11-18 17:38:49,15.0884353,0.0001489,53.2179,78.8012,96.6506,263.4655,9.4183e-05,1.211e-05,0.0,0 STARLINK-3273,1 50191U 21125AM  23322.73529261  .00001211  00000-0  94183-4 0  9998,2 50191  53.2179  78.8012 0001489  96.6506 263.4655 15.08843530109340,6917.87,95.437,540.765,538.705,0.0
50191.0,STARLINK-3273,PAYLOAD,2023-11-19 14:18:50,15.08841988,0.0001423,53.2174,74.9354,93.6325,266.483,6.6551e-05,7.71e-06,0.0,0 STARLINK-3273,1 50191U 21125AM  23323.59641376  .00000771  00000-0  66551-4 0  9993,2 50191  53.2174  74.9354 0001423  93.6325 266.4830 15.08841988109472,6917.874,95.437,540.724,538.755,0.0
50191.0,STARLINK-3273,PAYLOAD,2023-11-20 14:09:37,15.08842624,0.0001339,53.2181,70.4771,92.671,267.4436,3.646e-05,2.92e-06,0.0,0 STARLINK-3273,1 50191U 21125AM  23324.59001468  .00000292  00000-0  36460-4 0  9990,2 50191  53.2181  70.4771 0001339  92.6710 267.4436 15.08842624109625,6917.872,95.437,540.664,538.811,0.0
50191.0,STARLINK-3273,PAYLOAD,2023-11-20 18:55:46,15.08843886,0.0001405,53.2184,69.5848,93.6015,266.5137,0.00014125,1.961e-05,0.0,0 STARLINK-3273,1 50191U 21125AM  23324.78873074  .00001961  00000-0  14125-3 0  9998,2 50191  53.2184  69.5848 0001405  93.6015 266.5137 15.08843886106575,6917.869,95.437,540.705,538.762,0.0
50191.0,STARLINK-3273,PAYLOAD,2023-11-21 10:49:38,15.08839252,0.0001343,53.2186,66.6122,90.8926,269.222,3.6918e-05,3e-06,0.0,0 STARLINK-3273,1 50191U 21125AM  23325.45113729  .00000300  00000-0  36918-4 0  9998,2 50191  53.2186  66.6122 0001343  90.8926 269.2220 15.08839252106677,6917.883,95.438,540.677,538.819,0.0
50191.0,STARLINK-3273,PAYLOAD,2023-11-21 12:25:01,15.08841537,0.0001384,53.2186,66.3146,92.2964,267.8187,5.6045e-05,6.04e-06,0.0,0 STARLINK-3273,1 50191U 21125AM  23325.51737560  .00000604  00000-0  56045-4 0  9990,2 50191  53.2186  66.3146 0001384  92.2964 267.8187 15.08841537109761,6917.876,95.437,540.698,538.783,0.0
50191.0,STARLINK-3273,PAYLOAD,2023-11-22 13:51:11,15.08846855,0.0001559,53.2202,61.557,104.0438,256.0727,0.0001293,1.771e-05,0.0,0 STARLINK-3273,1 50191U 21125AM  23326.57721068  .00001771  00000-0  12930-3 0  9993,2 50191  53.2202  61.5570 0001559 104.0438 256.0727 15.08846855109926,6917.859,95.437,540.803,538.646,0.0
50191.0,STARLINK-3273,PAYLOAD,2023-11-23 12:06:35,15.08840467,0.0001699,53.2192,57.3938,83.0272,277.0914,3.576e-05,2.81e-06,0.0,0 STARLINK-3273,1 50191U 21125AM  23327.50457559  .00000281  00000-0  35760-4 0  9990,2 50191  53.2192  57.3938 0001699  83.0272 277.0914 15.08840467106989,6917.879,95.438,540.919,538.569,0.0
50191.0,STARLINK-3273,PAYLOAD,2023-11-23 15:17:21,15.08846122,0.0001764,53.2201,56.7993,93.0759,267.0435,0.00011501,1.543e-05,0.0,0 STARLINK-3273,1 50191U 21125AM  23327.63705227  .00001543  00000-0  11501-3 0  9990,2 50191  53.2201  56.7993 0001764  93.0759 267.0435 15.08846122110085,6917.862,95.437,540.947,538.506,0.0
